CCSDS_OMM_VERS = 2.0
CREATION_DATE  = 
ORIGINATOR     = 

OBJECT_NAME    = ATLAS CENTAUR R/B
OBJECT_ID      = 1972-065B
CENTER_NAME    = EARTH
REF_FRAME      = TEME
TIME_SYSTEM    = UTC
MEAN_ELEMENT_THEORY = SGP/SGP4

EPOCH          = 2026-01-15T18:51:43.963200
MEAN_MOTION    = 14.77509565
ECCENTRICITY   = .0034597
INCLINATION    = 35.0010
RA_OF_ASC_NODE = 255.7503
ARG_OF_PERICENTER = 284.8195
MEAN_ANOMALY   = 74.8674

EPHEMERIS_TYPE = 0
CLASSIFICATION_TYPE = U
NORAD_CAT_ID   = 6155
ELEMENT_SET_NO = 999
REV_AT_EPOCH   = 83343
BSTAR          = .94933E-4
MEAN_MOTION_DOT = .671E-5
MEAN_MOTION_DDOT = 0

CCSDS_OMM_VERS = 2.0
CREATION_DATE  = 
ORIGINATOR     = 

OBJECT_NAME    = SL-8 R/B
OBJECT_ID      = 1975-112B
CENTER_NAME    = EARTH
REF_FRAME      = TEME
TIME_SYSTEM    = UTC
MEAN_ELEMENT_THEORY = SGP/SGP4

EPOCH          = 2026-01-15T16:58:05.356416
MEAN_MOTION    = 14.38170242
ECCENTRICITY   = .0016391
INCLINATION    = 74.0614
RA_OF_ASC_NODE = 116.3806
ARG_OF_PERICENTER = 224.2449
MEAN_ANOMALY   = 135.7396

EPHEMERIS_TYPE = 0
CLASSIFICATION_TYPE = U
NORAD_CAT_ID   = 8459
ELEMENT_SET_NO = 999
REV_AT_EPOCH   = 62425
BSTAR          = .58544E-4
MEAN_MOTION_DOT = .152E-5
MEAN_MOTION_DDOT = 0

CCSDS_OMM_VERS = 2.0
CREATION_DATE  = 
ORIGINATOR     = 

OBJECT_NAME    = SL-3 R/B
OBJECT_ID      = 1977-057B
CENTER_NAME    = EARTH
REF_FRAME      = TEME
TIME_SYSTEM    = UTC
MEAN_ELEMENT_THEORY = SGP/SGP4

EPOCH          = 2026-01-15T19:03:10.761120
MEAN_MOTION    = 15.43864603
ECCENTRICITY   = .000852
INCLINATION    = 97.5697
RA_OF_ASC_NODE = 185.4756
ARG_OF_PERICENTER = 111.0801
MEAN_ANOMALY   = 249.1358

EPHEMERIS_TYPE = 0
CLASSIFICATION_TYPE = U
NORAD_CAT_ID   = 10114
ELEMENT_SET_NO = 999
REV_AT_EPOCH   = 66016
BSTAR          = .17183E-3
MEAN_MOTION_DOT = .7712E-4
MEAN_MOTION_DDOT = 0

CCSDS_OMM_VERS = 2.0
CREATION_DATE  = 
ORIGINATOR     = 

OBJECT_NAME    = SEASAT 1
OBJECT_ID      = 1978-064A
CENTER_NAME    = EARTH
REF_FRAME      = TEME
TIME_SYSTEM    = UTC
MEAN_ELEMENT_THEORY = SGP/SGP4

EPOCH          = 2026-01-15T17:12:14.721120
MEAN_MOTION    = 14.46103432
ECCENTRICITY   = .0001181
INCLINATION    = 108.0158
RA_OF_ASC_NODE = 14.3271
ARG_OF_PERICENTER = 277.5209
MEAN_ANOMALY   = 82.5803

EPHEMERIS_TYPE = 0
CLASSIFICATION_TYPE = U
NORAD_CAT_ID   = 10967
ELEMENT_SET_NO = 999
REV_AT_EPOCH   = 49885
BSTAR          = .88721E-4
MEAN_MOTION_DOT = .179E-5
MEAN_MOTION_DDOT = 0

CCSDS_OMM_VERS = 2.0
CREATION_DATE  = 
ORIGINATOR     = 

OBJECT_NAME    = SL-14 R/B
OBJECT_ID      = 1979-011B
CENTER_NAME    = EARTH
REF_FRAME      = TEME
TIME_SYSTEM    = UTC
MEAN_ELEMENT_THEORY = SGP/SGP4

EPOCH          = 2026-01-15T19:04:53.127840
MEAN_MOTION    = 14.91822988
ECCENTRICITY   = .0014924
INCLINATION    = 82.5258
RA_OF_ASC_NODE = 146.7468
ARG_OF_PERICENTER = 230.9105
MEAN_ANOMALY   = 129.0788

EPHEMERIS_TYPE = 0
CLASSIFICATION_TYPE = U
NORAD_CAT_ID   = 11267
ELEMENT_SET_NO = 999
REV_AT_EPOCH   = 52089
BSTAR          = .4552E-4
MEAN_MOTION_DOT = .485E-5
MEAN_MOTION_DDOT = 0

CCSDS_OMM_VERS = 2.0
CREATION_DATE  = 
ORIGINATOR     = 

OBJECT_NAME    = SL-8 R/B
OBJECT_ID      = 1979-089B
CENTER_NAME    = EARTH
REF_FRAME      = TEME
TIME_SYSTEM    = UTC
MEAN_ELEMENT_THEORY = SGP/SGP4

EPOCH          = 2026-01-15T18:06:11.514816
MEAN_MOTION    = 14.42307725
ECCENTRICITY   = .0015524
INCLINATION    = 74.0674
RA_OF_ASC_NODE = 189.0233
ARG_OF_PERICENTER = 10.6225
MEAN_ANOMALY   = 349.5257

EPHEMERIS_TYPE = 0
CLASSIFICATION_TYPE = U
NORAD_CAT_ID   = 11574
ELEMENT_SET_NO = 999
REV_AT_EPOCH   = 42847
BSTAR          = .85027E-4
MEAN_MOTION_DOT = .255E-5
MEAN_MOTION_DDOT = 0

CCSDS_OMM_VERS = 2.0
CREATION_DATE  = 
ORIGINATOR     = 

OBJECT_NAME    = SL-14 R/B
OBJECT_ID      = 1980-005B
CENTER_NAME    = EARTH
REF_FRAME      = TEME
TIME_SYSTEM    = UTC
MEAN_ELEMENT_THEORY = SGP/SGP4

EPOCH          = 2026-01-15T08:53:45.862944
MEAN_MOTION    = 14.90840976
ECCENTRICITY   = .00153701
INCLINATION    = 82.5149
RA_OF_ASC_NODE = 357.7986
ARG_OF_PERICENTER = 347.4174
MEAN_ANOMALY   = 12.6659

EPHEMERIS_TYPE = 0
CLASSIFICATION_TYPE = U
NORAD_CAT_ID   = 11672
ELEMENT_SET_NO = 999
REV_AT_EPOCH   = 46854
BSTAR          = .47689044E-4
MEAN_MOTION_DOT = .495E-5
MEAN_MOTION_DDOT = 0

CCSDS_OMM_VERS = 2.0
CREATION_DATE  = 
ORIGINATOR     = 

OBJECT_NAME    = SL-8 R/B
OBJECT_ID      = 1981-003B
CENTER_NAME    = EARTH
REF_FRAME      = TEME
TIME_SYSTEM    = UTC
MEAN_ELEMENT_THEORY = SGP/SGP4

EPOCH          = 2026-01-15T20:24:57.659040
MEAN_MOTION    = 15.08515644
ECCENTRICITY   = .0271486
INCLINATION    = 82.9385
RA_OF_ASC_NODE = 338.8047
ARG_OF_PERICENTER = 3.1626
MEAN_ANOMALY   = 357.1235

EPHEMERIS_TYPE = 0
CLASSIFICATION_TYPE = U
NORAD_CAT_ID   = 12139
ELEMENT_SET_NO = 999
REV_AT_EPOCH   = 30670
BSTAR          = .51624E-3
MEAN_MOTION_DOT = .19505E-3
MEAN_MOTION_DDOT = 0

CCSDS_OMM_VERS = 2.0
CREATION_DATE  = 
ORIGINATOR     = 

OBJECT_NAME    = SL-3 R/B
OBJECT_ID      = 1981-046B
CENTER_NAME    = EARTH
REF_FRAME      = TEME
TIME_SYSTEM    = UTC
MEAN_ELEMENT_THEORY = SGP/SGP4

EPOCH          = 2026-01-15T19:21:17.364672
MEAN_MOTION    = 15.40426086
ECCENTRICITY   = .0018675
INCLINATION    = 81.2325
RA_OF_ASC_NODE = 353.1558
ARG_OF_PERICENTER = 197.9794
MEAN_ANOMALY   = 162.0790

EPHEMERIS_TYPE = 0
CLASSIFICATION_TYPE = U
NORAD_CAT_ID   = 12465
ELEMENT_SET_NO = 999
REV_AT_EPOCH   = 43028
BSTAR          = .18145E-3
MEAN_MOTION_DOT = .7415E-4
MEAN_MOTION_DDOT = 0

CCSDS_OMM_VERS = 2.0
CREATION_DATE  = 
ORIGINATOR     = 

OBJECT_NAME    = SL-3 R/B
OBJECT_ID      = 1981-103B
CENTER_NAME    = EARTH
REF_FRAME      = TEME
TIME_SYSTEM    = UTC
MEAN_ELEMENT_THEORY = SGP/SGP4

EPOCH          = 2026-01-15T19:34:15.686976
MEAN_MOTION    = 15.20680719
ECCENTRICITY   = .0014368
INCLINATION    = 81.1593
RA_OF_ASC_NODE = 275.4361
ARG_OF_PERICENTER = 101.0053
MEAN_ANOMALY   = 259.2795

EPHEMERIS_TYPE = 0
CLASSIFICATION_TYPE = U
NORAD_CAT_ID   = 12904
ELEMENT_SET_NO = 999
REV_AT_EPOCH   = 96519
BSTAR          = .11151E-3
MEAN_MOTION_DOT = .2481E-4
MEAN_MOTION_DDOT = 0

CCSDS_OMM_VERS = 2.0
CREATION_DATE  = 
ORIGINATOR     = 

OBJECT_NAME    = SL-3 R/B
OBJECT_ID      = 1982-013B
CENTER_NAME    = EARTH
REF_FRAME      = TEME
TIME_SYSTEM    = UTC
MEAN_ELEMENT_THEORY = SGP/SGP4

EPOCH          = 2026-01-15T18:44:43.626336
MEAN_MOTION    = 15.21406914
ECCENTRICITY   = .0022866
INCLINATION    = 81.1725
RA_OF_ASC_NODE = 222.7538
ARG_OF_PERICENTER = 0.6468
MEAN_ANOMALY   = 359.4788

EPHEMERIS_TYPE = 0
CLASSIFICATION_TYPE = U
NORAD_CAT_ID   = 13068
ELEMENT_SET_NO = 999
REV_AT_EPOCH   = 39630
BSTAR          = .11734E-3
MEAN_MOTION_DOT = .2676E-4
MEAN_MOTION_DDOT = 0

CCSDS_OMM_VERS = 2.0
CREATION_DATE  = 
ORIGINATOR     = 

OBJECT_NAME    = SL-3 R/B
OBJECT_ID      = 1982-039B
CENTER_NAME    = EARTH
REF_FRAME      = TEME
TIME_SYSTEM    = UTC
MEAN_ELEMENT_THEORY = SGP/SGP4

EPOCH          = 2026-01-15T18:35:01.493376
MEAN_MOTION    = 15.09748146
ECCENTRICITY   = .0029893
INCLINATION    = 81.1674
RA_OF_ASC_NODE = 276.9320
ARG_OF_PERICENTER = 137.6893
MEAN_ANOMALY   = 222.6646

EPHEMERIS_TYPE = 0
CLASSIFICATION_TYPE = U
NORAD_CAT_ID   = 13154
ELEMENT_SET_NO = 999
REV_AT_EPOCH   = 37365
BSTAR          = .93307E-4
MEAN_MOTION_DOT = .1545E-4
MEAN_MOTION_DDOT = 0

