ATLAS CENTAUR R/B       
1 06155U 72065B   26015.78592550  .00000671  00000+0  94933-4 0  9997
2 06155  35.0010 255.7503 0034597 284.8195  74.8674 14.77509565833436
SL-8 R/B                
1 08459U 75112B   26015.70700644  .00000152  00000+0  58544-4 0  9991
2 08459  74.0614 116.3806 0016391 224.2449 135.7396 14.38170242624257
SL-3 R/B                
1 10114U 77057B   26015.79387455  .00007712  00000+0  17183-3 0  9994
2 10114  97.5697 185.4756 0008520 111.0801 249.1358 15.43864603660166
SEASAT 1                
1 10967U 78064A   26015.71683705  .00000179  00000+0  88721-4 0  9995
2 10967 108.0158  14.3271 0001181 277.5209  82.5803 14.46103432498857
SL-14 R/B               
1 11267U 79011B   26015.79505935  .00000485  00000+0  45520-4 0  9998
2 11267  82.5258 146.7468 0014924 230.9105 129.0788 14.91822988520896
SL-8 R/B                
1 11574U 79089B   26015.75429994  .00000255  00000+0  85027-4 0  9991
2 11574  74.0674 189.0233 0015524  10.6225 349.5257 14.42307725428472
SL-14 R/B               
1 11672U 80005B   26015.37066971  .00000495  00000+0  47689-4 0  9998
2 11672  82.5149 357.7986 0015370 347.4174  12.6659 14.90840976468543
SL-8 R/B                
1 12139U 81003B   26015.85066735  .00019505  00000+0  51624-3 0  9992
2 12139  82.9385 338.8047 0271486   3.1626 357.1235 15.08515644306703
SL-3 R/B                
1 12465U 81046B   26015.80645098  .00007415  00000+0  18145-3 0  9999
2 12465  81.2325 353.1558 0018675 197.9794 162.0790 15.40426086430282
SL-3 R/B                
1 12904U 81103B   26015.81545934  .00002481  00000+0  11151-3 0  9998
2 12904  81.1593 275.4361 0014368 101.0053 259.2795 15.20680719965193
SL-3 R/B                
1 13068U 82013B   26015.78106049  .00002676  00000+0  11734-3 0  9990
2 13068  81.1725 222.7538 0022866   0.6468 359.4788 15.21406914396309
SL-3 R/B                
1 13154U 82039B   26015.77432284  .00001545  00000+0  93307-4 0  9997
2 13154  81.1674 276.9320 0029893 137.6893 222.6646 15.09748146373657
